[
  {
    "OBJECT_NAME": "STARLINK-1039",
    "OBJECT_ID": "19074AH",
    "EPOCH": "2025-11-11T05:39:49.755456",
    "MEAN_MOTION": 15.13779918,
    "ECCENTRICITY": 0.0002222,
    "INCLINATION": 53.0516,
    "RA_OF_ASC_NODE": 35.8201,
    "ARG_OF_PERICENTER": 194.809,
    "MEAN_ANOMALY": 165.2837,
    "EPHEMERIS_TYPE": 0,
    "CLASSIFICATION_TYPE": "U",
    "NORAD_CAT_ID": 44744,
    "ELEMENT_SET_NO": 999,
    "REV_AT_EPOCH": 33037,
    "BSTAR": 0.0016038,
    "MEAN_MOTION_DOT": 0.00029093,
    "MEAN_MOTION_DDOT": 0.0,
    "TLE_LINE1": "1 44744U 19074AH  25315.23599254  .00029093  00000+0  16038-2 0  9991",
    "TLE_LINE2": "2 44744  53.0516  35.8201 0002222 194.8090 165.2837 15.13779918330372",
    "COMMENT": "Grouped by shell and plane from TLE"
  },
  {
    "OBJECT_NAME": "STARLINK-1043",
    "OBJECT_ID": "19074AM",
    "EPOCH": "2025-11-11T06:10:32.278656",
    "MEAN_MOTION": 15.06368115,
    "ECCENTRICITY": 0.0001397,
    "INCLINATION": 53.0541,
    "RA_OF_ASC_NODE": 38.2803,
    "ARG_OF_PERICENTER": 107.1253,
    "MEAN_ANOMALY": 252.9889,
    "EPHEMERIS_TYPE": 0,
    "CLASSIFICATION_TYPE": "U",
    "NORAD_CAT_ID": 44748,
    "ELEMENT_SET_NO": 999,
    "REV_AT_EPOCH": 33034,
    "BSTAR": 0.0011085000000000001,
    "MEAN_MOTION_DOT": 0.00016254,
    "MEAN_MOTION_DDOT": 0.0,
    "TLE_LINE1": "1 44748U 19074AM  25315.25731804  .00016254  00000+0  11085-2 0  9998",
    "TLE_LINE2": "2 44748  53.0541  38.2803 0001397 107.1253 252.9889 15.06368115330342",
    "COMMENT": "Grouped by shell and plane from TLE"
  },
  {
    "OBJECT_NAME": "STARLINK-1046",
    "OBJECT_ID": "19074AQ",
    "EPOCH": "2025-11-11T06:31:43.801536",
    "MEAN_MOTION": 15.06401909,
    "ECCENTRICITY": 8.5e-05,
    "INCLINATION": 53.0546,
    "RA_OF_ASC_NODE": 38.2145,
    "ARG_OF_PERICENTER": 75.3017,
    "MEAN_ANOMALY": 284.8066,
    "EPHEMERIS_TYPE": 0,
    "CLASSIFICATION_TYPE": "U",
    "NORAD_CAT_ID": 44751,
    "ELEMENT_SET_NO": 999,
    "REV_AT_EPOCH": 33034,
    "BSTAR": 9.4425e-05,
    "MEAN_MOTION_DOT": 1.126e-05,
    "MEAN_MOTION_DDOT": 0.0,
    "TLE_LINE1": "1 44751U 19074AQ  25315.27203474  .00001126  00000+0  94425-4 0  9994",
    "TLE_LINE2": "2 44751  53.0546  38.2145 0000850  75.3017 284.8066 15.06401909330347",
    "COMMENT": "Grouped by shell and plane from TLE"
  },
  {
    "OBJECT_NAME": "STARLINK-1063",
    "OBJECT_ID": "19074BH",
    "EPOCH": "2025-11-11T06:15:48.222720",
    "MEAN_MOTION": 15.06406559,
    "ECCENTRICITY": 0.0001329,
    "INCLINATION": 53.0547,
    "RA_OF_ASC_NODE": 38.266,
    "ARG_OF_PERICENTER": 87.8479,
    "MEAN_ANOMALY": 272.2662,
    "EPHEMERIS_TYPE": 0,
    "CLASSIFICATION_TYPE": "U",
    "NORAD_CAT_ID": 44768,
    "ELEMENT_SET_NO": 999,
    "REV_AT_EPOCH": 33035,
    "BSTAR": 5.5202e-05,
    "MEAN_MOTION_DOT": 5.41e-06,
    "MEAN_MOTION_DDOT": 0.0,
    "TLE_LINE1": "1 44768U 19074BH  25315.26097480  .00000541  00000+0  55202-4 0  9999",
    "TLE_LINE2": "2 44768  53.0547  38.2660 0001329  87.8479 272.2662 15.06406559330350",
    "COMMENT": "Grouped by shell and plane from TLE"
  },
  {
    "OBJECT_NAME": "STARLINK-1067",
    "OBJECT_ID": "19074BL",
    "EPOCH": "2025-11-11T05:59:52.681920",
    "MEAN_MOTION": 15.06408451,
    "ECCENTRICITY": 0.0002128,
    "INCLINATION": 53.0543,
    "RA_OF_ASC_NODE": 38.3154,
    "ARG_OF_PERICENTER": 96.9087,
    "MEAN_ANOMALY": 263.2144,
    "EPHEMERIS_TYPE": 0,
    "CLASSIFICATION_TYPE": "U",
    "NORAD_CAT_ID": 44771,
    "ELEMENT_SET_NO": 999,
    "REV_AT_EPOCH": 33034,
    "BSTAR": 0.00014283,
    "MEAN_MOTION_DOT": 1.847e-05,
    "MEAN_MOTION_DDOT": 0.0,
    "TLE_LINE1": "1 44771U 19074BL  25315.24991530  .00001847  00000+0  14283-3 0  9993",
    "TLE_LINE2": "2 44771  53.0543  38.3154 0002128  96.9087 263.2144 15.06408451330340",
    "COMMENT": "Grouped by shell and plane from TLE"
  },
  {
    "OBJECT_NAME": "STARLINK-1506",
    "OBJECT_ID": "20038T",
    "EPOCH": "2025-11-10T15:16:24.421728",
    "MEAN_MOTION": 15.21741631,
    "ECCENTRICITY": 0.0001808,
    "INCLINATION": 53.0635,
    "RA_OF_ASC_NODE": 31.3003,
    "ARG_OF_PERICENTER": 285.0134,
    "MEAN_ANOMALY": 75.0662,
    "EPHEMERIS_TYPE": 0,
    "CLASSIFICATION_TYPE": "U",
    "NORAD_CAT_ID": 45747,
    "ELEMENT_SET_NO": 999,
    "REV_AT_EPOCH": 29853,
    "BSTAR": 0.00048798000000000005,
    "MEAN_MOTION_DOT": 0.00010887,
    "MEAN_MOTION_DDOT": 0.0,
    "TLE_LINE1": "1 45747U 20038T   25314.63639377  .00010887  00000+0  48798-3 0  9991",
    "TLE_LINE2": "2 45747  53.0635  31.3003 0001808 285.0134  75.0662 15.21741631298535",
    "COMMENT": "Grouped by shell and plane from TLE"
  },
  {
    "OBJECT_NAME": "STARLINK-1502",
    "OBJECT_ID": "20038AL",
    "EPOCH": "2025-11-10T14:16:25.508352",
    "MEAN_MOTION": 15.06422338,
    "ECCENTRICITY": 0.0001477,
    "INCLINATION": 53.0564,
    "RA_OF_ASC_NODE": 31.26,
    "ARG_OF_PERICENTER": 100.5187,
    "MEAN_ANOMALY": 259.5969,
    "EPHEMERIS_TYPE": 0,
    "CLASSIFICATION_TYPE": "U",
    "NORAD_CAT_ID": 45764,
    "ELEMENT_SET_NO": 999,
    "REV_AT_EPOCH": 29853,
    "BSTAR": 0.00040202,
    "MEAN_MOTION_DOT": 5.715e-05,
    "MEAN_MOTION_DDOT": 0.0,
    "TLE_LINE1": "1 45764U 20038AL  25314.59473968  .00005715  00000+0  40202-3 0  9993",
    "TLE_LINE2": "2 45764  53.0564  31.2600 0001477 100.5187 259.5969 15.06422338298530",
    "COMMENT": "Grouped by shell and plane from TLE"
  },
  {
    "OBJECT_NAME": "STARLINK-1802",
    "OBJECT_ID": "20073AJ",
    "EPOCH": "2025-11-11T05:04:48.621504",
    "MEAN_MOTION": 15.06397602,
    "ECCENTRICITY": 0.0001265,
    "INCLINATION": 53.057,
    "RA_OF_ASC_NODE": 33.4864,
    "ARG_OF_PERICENTER": 95.9622,
    "MEAN_ANOMALY": 264.1511,
    "EPHEMERIS_TYPE": 0,
    "CLASSIFICATION_TYPE": "U",
    "NORAD_CAT_ID": 46702,
    "ELEMENT_SET_NO": 999,
    "REV_AT_EPOCH": 27955,
    "BSTAR": 7.2865e-05,
    "MEAN_MOTION_DOT": 8.04e-06,
    "MEAN_MOTION_DDOT": 0.0,
    "TLE_LINE1": "1 46702U 20073AJ  25315.21167386  .00000804  00000+0  72865-4 0  9994",
    "TLE_LINE2": "2 46702  53.0570  33.4864 0001265  95.9622 264.1511 15.06397602279553",
    "COMMENT": "Grouped by shell and plane from TLE"
  },
  {
    "OBJECT_NAME": "STARLINK-2143",
    "OBJECT_ID": "21017M",
    "EPOCH": "2025-11-10T11:55:06.576096",
    "MEAN_MOTION": 15.06418517,
    "ECCENTRICITY": 0.0001584,
    "INCLINATION": 53.0551,
    "RA_OF_ASC_NODE": 36.6947,
    "ARG_OF_PERICENTER": 94.7171,
    "MEAN_ANOMALY": 265.3999,
    "EPHEMERIS_TYPE": 0,
    "CLASSIFICATION_TYPE": "U",
    "NORAD_CAT_ID": 47733,
    "ELEMENT_SET_NO": 999,
    "REV_AT_EPOCH": 25967,
    "BSTAR": 0.00049166,
    "MEAN_MOTION_DOT": 7.053e-05,
    "MEAN_MOTION_DDOT": 0.0,
    "TLE_LINE1": "1 47733U 21017M   25314.49660389  .00007053  00000+0  49166-3 0  9998",
    "TLE_LINE2": "2 47733  53.0551  36.6947 0001584  94.7171 265.3999 15.06418517259677",
    "COMMENT": "Grouped by shell and plane from TLE"
  },
  {
    "OBJECT_NAME": "STARLINK-2178",
    "OBJECT_ID": "21017AQ",
    "EPOCH": "2025-11-11T05:57:53.530272",
    "MEAN_MOTION": 15.06413118,
    "ECCENTRICITY": 0.0001216,
    "INCLINATION": 53.0552,
    "RA_OF_ASC_NODE": 33.3192,
    "ARG_OF_PERICENTER": 92.3004,
    "MEAN_ANOMALY": 267.8124,
    "EPHEMERIS_TYPE": 0,
    "CLASSIFICATION_TYPE": "U",
    "NORAD_CAT_ID": 47760,
    "ELEMENT_SET_NO": 999,
    "REV_AT_EPOCH": 25976,
    "BSTAR": 0.00051049,
    "MEAN_MOTION_DOT": 7.333e-05,
    "MEAN_MOTION_DDOT": 0.0,
    "TLE_LINE1": "1 47760U 21017AQ  25315.24853623  .00007333  00000+0  51049-3 0  9991",
    "TLE_LINE2": "2 47760  53.0552  33.3192 0001216  92.3004 267.8124 15.06413118259764",
    "COMMENT": "Grouped by shell and plane from TLE"
  },
  {
    "OBJECT_NAME": "STARLINK-2180",
    "OBJECT_ID": "21017AS",
    "EPOCH": "2025-11-11T05:43:57.358848",
    "MEAN_MOTION": 15.06414952,
    "ECCENTRICITY": 9.76e-05,
    "INCLINATION": 53.0541,
    "RA_OF_ASC_NODE": 38.374,
    "ARG_OF_PERICENTER": 77.6101,
    "MEAN_ANOMALY": 282.4997,
    "EPHEMERIS_TYPE": 0,
    "CLASSIFICATION_TYPE": "U",
    "NORAD_CAT_ID": 47762,
    "ELEMENT_SET_NO": 999,
    "REV_AT_EPOCH": 25968,
    "BSTAR": 0.00027334,
    "MEAN_MOTION_DOT": 3.794e-05,
    "MEAN_MOTION_DDOT": 0.0,
    "TLE_LINE1": "1 47762U 21017AS  25315.23885832  .00003794  00000+0  27334-3 0  9996",
    "TLE_LINE2": "2 47762  53.0541  38.3740 0000976  77.6101 282.4997 15.06414952259683",
    "COMMENT": "Grouped by shell and plane from TLE"
  },
  {
    "OBJECT_NAME": "STARLINK-2195",
    "OBJECT_ID": "21017BC",
    "EPOCH": "2025-11-11T04:38:16.710144",
    "MEAN_MOTION": 15.06414789,
    "ECCENTRICITY": 0.0001217,
    "INCLINATION": 53.0547,
    "RA_OF_ASC_NODE": 33.5693,
    "ARG_OF_PERICENTER": 60.4719,
    "MEAN_ANOMALY": 299.6391,
    "EPHEMERIS_TYPE": 0,
    "CLASSIFICATION_TYPE": "U",
    "NORAD_CAT_ID": 47772,
    "ELEMENT_SET_NO": 999,
    "REV_AT_EPOCH": 25973,
    "BSTAR": 0.00045434,
    "MEAN_MOTION_DOT": 6.495e-05,
    "MEAN_MOTION_DDOT": 0.0,
    "TLE_LINE1": "1 47772U 21017BC  25315.19324896  .00006495  00000+0  45434-3 0  9992",
    "TLE_LINE2": "2 47772  53.0547  33.5693 0001217  60.4719 299.6391 15.06414789259730",
    "COMMENT": "Grouped by shell and plane from TLE"
  },
  {
    "OBJECT_NAME": "STARLINK-2196",
    "OBJECT_ID": "21017BD",
    "EPOCH": "2025-11-11T06:08:31.202016",
    "MEAN_MOTION": 15.06393637,
    "ECCENTRICITY": 0.0001101,
    "INCLINATION": 53.055,
    "RA_OF_ASC_NODE": 33.2879,
    "ARG_OF_PERICENTER": 77.7667,
    "MEAN_ANOMALY": 282.3445,
    "EPHEMERIS_TYPE": 0,
    "CLASSIFICATION_TYPE": "U",
    "NORAD_CAT_ID": 47773,
    "ELEMENT_SET_NO": 999,
    "REV_AT_EPOCH": 25973,
    "BSTAR": 0.00016002,
    "MEAN_MOTION_DOT": 2.102e-05,
    "MEAN_MOTION_DDOT": 0.0,
    "TLE_LINE1": "1 47773U 21017BD  25315.25591669  .00002102  00000+0  16002-3 0  9994",
    "TLE_LINE2": "2 47773  53.0550  33.2879 0001101  77.7667 282.3445 15.06393637259730",
    "COMMENT": "Grouped by shell and plane from TLE"
  }
]